[{"OBJECT_NAME":"STARLINK-6042","OBJECT_ID":"2023-078AT","EPOCH":"2026-03-09T22:26:13.300224","MEAN_MOTION":14.98333415,"ECCENTRICITY":0.00021339,"INCLINATION":69.9982,"RA_OF_ASC_NODE":273.9199,"ARG_OF_PERICENTER":272.1987,"MEAN_ANOMALY":87.8928,"EPHEMERIS_TYPE":0,"CLASSIFICATION_TYPE":"U","NORAD_CAT_ID":56808,"ELEMENT_SET_NO":999,"REV_AT_EPOCH":15445,"BSTAR":3.7160668e-5,"MEAN_MOTION_DOT":3.51e-6,"MEAN_MOTION_DDOT":0},{"OBJECT_NAME":"HAWK-9A","OBJECT_ID":"2024-066E","EPOCH":"2026-03-09T10:20:39.002208","MEAN_MOTION":14.98777479,"ECCENTRICITY":0.00036271,"INCLINATION":45.6088,"RA_OF_ASC_NODE":72.7153,"ARG_OF_PERICENTER":244.6286,"MEAN_ANOMALY":115.4219,"EPHEMERIS_TYPE":0,"CLASSIFICATION_TYPE":"U","NORAD_CAT_ID":59446,"ELEMENT_SET_NO":999,"REV_AT_EPOCH":10486,"BSTAR":0.00023458946,"MEAN_MOTION_DOT":2.638e-5,"MEAN_MOTION_DDOT":0}]
